[{"OBJECT_NAME":"COSMOS 2570","OBJECT_ID":"2023-165A","EPOCH":"2026-03-09T22:28:49.439712","MEAN_MOTION":13.9667423,"ECCENTRICITY":0.00055388,"INCLINATION":67.1495,"RA_OF_ASC_NODE":170.6508,"ARG_OF_PERICENTER":278.5801,"MEAN_ANOMALY":81.4656,"EPHEMERIS_TYPE":0,"CLASSIFICATION_TYPE":"U","NORAD_CAT_ID":58148,"ELEMENT_SET_NO":999,"REV_AT_EPOCH":12077,"BSTAR":2.806806e-5,"MEAN_MOTION_DOT":-3.6e-7,"MEAN_MOTION_DDOT":0},{"OBJECT_NAME":"SL-14 DEB","OBJECT_ID":"1987-068DH","EPOCH":"2026-02-24T00:59:21.079680","MEAN_MOTION":13.94787461,"ECCENTRICITY":0.00079931,"INCLINATION":82.5559,"RA_OF_ASC_NODE":321.9324,"ARG_OF_PERICENTER":140.7591,"MEAN_ANOMALY":281.6497,"EPHEMERIS_TYPE":0,"CLASSIFICATION_TYPE":"U","NORAD_CAT_ID":39981,"ELEMENT_SET_NO":999,"REV_AT_EPOCH":59625,"BSTAR":0.00048211355,"MEAN_MOTION_DOT":6.61e-6,"MEAN_MOTION_DDOT":0}]
